[{"OBJECT_NAME":"STARLINK-33939","OBJECT_ID":"2025-087F","EPOCH":"2026-03-09T17:25:24.179520","MEAN_MOTION":15.30201362,"ECCENTRICITY":0.00010357,"INCLINATION":53.1584,"RA_OF_ASC_NODE":219.4976,"ARG_OF_PERICENTER":85.5171,"MEAN_ANOMALY":274.5948,"EPHEMERIS_TYPE":0,"CLASSIFICATION_TYPE":"U","NORAD_CAT_ID":63702,"ELEMENT_SET_NO":999,"REV_AT_EPOCH":4920,"BSTAR":0.0012188112,"MEAN_MOTION_DOT":0.00035915,"MEAN_MOTION_DDOT":0},{"OBJECT_NAME":"PEGASUS DEB","OBJECT_ID":"1994-029AG","EPOCH":"2026-03-09T11:16:42.963744","MEAN_MOTION":15.37636263,"ECCENTRICITY":0.0031206,"INCLINATION":82.0362,"RA_OF_ASC_NODE":86.2933,"ARG_OF_PERICENTER":155.6019,"MEAN_ANOMALY":204.671,"EPHEMERIS_TYPE":0,"CLASSIFICATION_TYPE":"U","NORAD_CAT_ID":23986,"ELEMENT_SET_NO":999,"REV_AT_EPOCH":61542,"BSTAR":0.00061808813,"MEAN_MOTION_DOT":0.00023279,"MEAN_MOTION_DDOT":0}]
